COSMOS 1933             
1 18958U 88020A   26023.49775604  .00006871  00000+0  34082-3 0  9995
2 18958  82.5139 295.6132 0004841  22.0327 338.1114 15.17552941 43370
SL-3 R/B                
1 19046U 88032B   26023.56055540  .00009186  00000+0  43440-3 0  9995
2 19046  97.5133   7.0163 0027545  34.8399 325.4632 15.19269797 45253
SL-16 R/B               
1 19120U 88039B   26023.67271479 -.00000022  00000+0  12230-4 0  9993
2 19120  71.0144 163.7353 0020143  44.7777 315.4970 14.19608637951993
COSMOS 1953             
1 19210U 88050A   26023.63760605  .00013103  00000+0  48420-3 0  9998
2 19210  82.5073 203.5200 0010369 284.8680  75.1410 15.27553587 30905
SL-8 R/B                
1 19257U 88053B   26023.53345652  .00000417  00000+0  14352-3 0  9993
2 19257  74.0458 195.6913 0019690  24.8383  31.1884 14.38886072970100
COSMOS 1975             
1 19573U 88093A   26023.65969088  .00013144  00000+0  49107-3 0  9993
2 19573  82.5216 162.8420 0010934 334.3611  25.7084 15.27187152 12538
SL-14 R/B               
1 19574U 88093B   26023.62014583  .00000837  00000+0  93659-4 0  9999
2 19574  82.5297  84.3637 0020619 183.0799 329.8550 14.85604103994340
SL-16 R/B               
1 19650U 88102B   26023.34529952  .00000019  00000+0  33912-4 0  9993
2 19650  70.9979 246.9033 0011927  77.7851 282.4607 14.16148118920472
INTERCOSMOS 24          
1 20261U 89080A   26023.36976893  .00000797  00000+0  22792-3 0  9997
2 20261  82.6079 133.8920 1188829  38.0059 329.9148 12.59497522661097
SL-14 R/B               
1 20262U 89080C   26023.50714090  .00000396  00000+0  12022-3 0  9993
2 20262  82.5920 202.1972 1229559 288.1003  59.0137 12.50444300654506
DELTA 1 R/B             
1 20323U 89089B   26023.57877585  .00000771  00000+0  19981-3 0  9994
2 20323  97.0733 238.1824 0067546 265.2425  94.1057 14.50617966889199
ARIANE 40 R/B           
1 20443U 90005H   26023.57437044  .00000632  00000+0  21487-3 0  9999
2 20443  98.3178  85.5581 0009649 347.3140  12.7804 14.39836074886316
