CCSDS_OMM_VERS = 2.0
CREATION_DATE  = 
ORIGINATOR     = 

OBJECT_NAME    = COSMOS 1933
OBJECT_ID      = 1988-020A
CENTER_NAME    = EARTH
REF_FRAME      = TEME
TIME_SYSTEM    = UTC
MEAN_ELEMENT_THEORY = SGP/SGP4

EPOCH          = 2026-01-23T11:56:46.121856
MEAN_MOTION    = 15.17552941
ECCENTRICITY   = .00048417
INCLINATION    = 82.5139
RA_OF_ASC_NODE = 295.6132
ARG_OF_PERICENTER = 22.0327
MEAN_ANOMALY   = 338.1114

EPHEMERIS_TYPE = 0
CLASSIFICATION_TYPE = U
NORAD_CAT_ID   = 18958
ELEMENT_SET_NO = 999
REV_AT_EPOCH   = 4337
BSTAR          = .34081852E-3
MEAN_MOTION_DOT = .6871E-4
MEAN_MOTION_DDOT = 0

CCSDS_OMM_VERS = 2.0
CREATION_DATE  = 
ORIGINATOR     = 

OBJECT_NAME    = SL-3 R/B
OBJECT_ID      = 1988-032B
CENTER_NAME    = EARTH
REF_FRAME      = TEME
TIME_SYSTEM    = UTC
MEAN_ELEMENT_THEORY = SGP/SGP4

EPOCH          = 2026-01-23T13:27:11.986560
MEAN_MOTION    = 15.19269797
ECCENTRICITY   = .00275459
INCLINATION    = 97.5133
RA_OF_ASC_NODE = 7.0163
ARG_OF_PERICENTER = 34.8399
MEAN_ANOMALY   = 325.4632

EPHEMERIS_TYPE = 0
CLASSIFICATION_TYPE = U
NORAD_CAT_ID   = 19046
ELEMENT_SET_NO = 999
REV_AT_EPOCH   = 4525
BSTAR          = .43440077E-3
MEAN_MOTION_DOT = .9186E-4
MEAN_MOTION_DDOT = 0

CCSDS_OMM_VERS = 2.0
CREATION_DATE  = 
ORIGINATOR     = 

OBJECT_NAME    = SL-16 R/B
OBJECT_ID      = 1988-039B
CENTER_NAME    = EARTH
REF_FRAME      = TEME
TIME_SYSTEM    = UTC
MEAN_ELEMENT_THEORY = SGP/SGP4

EPOCH          = 2026-01-23T16:08:42.557856
MEAN_MOTION    = 14.19608637
ECCENTRICITY   = .00201436
INCLINATION    = 71.0144
RA_OF_ASC_NODE = 163.7353
ARG_OF_PERICENTER = 44.7777
MEAN_ANOMALY   = 315.4970

EPHEMERIS_TYPE = 0
CLASSIFICATION_TYPE = U
NORAD_CAT_ID   = 19120
ELEMENT_SET_NO = 999
REV_AT_EPOCH   = 95199
BSTAR          = .12230474E-4
MEAN_MOTION_DOT = -.22E-6
MEAN_MOTION_DDOT = 0

CCSDS_OMM_VERS = 2.0
CREATION_DATE  = 
ORIGINATOR     = 

OBJECT_NAME    = COSMOS 1953
OBJECT_ID      = 1988-050A
CENTER_NAME    = EARTH
REF_FRAME      = TEME
TIME_SYSTEM    = UTC
MEAN_ELEMENT_THEORY = SGP/SGP4

EPOCH          = 2026-01-23T15:18:09.162720
MEAN_MOTION    = 15.27553587
ECCENTRICITY   = .00103697
INCLINATION    = 82.5073
RA_OF_ASC_NODE = 203.5200
ARG_OF_PERICENTER = 284.8680
MEAN_ANOMALY   = 75.1410

EPHEMERIS_TYPE = 0
CLASSIFICATION_TYPE = U
NORAD_CAT_ID   = 19210
ELEMENT_SET_NO = 999
REV_AT_EPOCH   = 3090
BSTAR          = .48419734E-3
MEAN_MOTION_DOT = .13103E-3
MEAN_MOTION_DDOT = 0

CCSDS_OMM_VERS = 2.0
CREATION_DATE  = 
ORIGINATOR     = 

OBJECT_NAME    = SL-8 R/B
OBJECT_ID      = 1988-053B
CENTER_NAME    = EARTH
REF_FRAME      = TEME
TIME_SYSTEM    = UTC
MEAN_ELEMENT_THEORY = SGP/SGP4

EPOCH          = 2026-01-23T12:48:10.643328
MEAN_MOTION    = 14.38886072
ECCENTRICITY   = .00196903
INCLINATION    = 74.0458
RA_OF_ASC_NODE = 195.6913
ARG_OF_PERICENTER = 24.8383
MEAN_ANOMALY   = 31.1884

EPHEMERIS_TYPE = 0
CLASSIFICATION_TYPE = U
NORAD_CAT_ID   = 19257
ELEMENT_SET_NO = 999
REV_AT_EPOCH   = 97010
BSTAR          = .14352306E-3
MEAN_MOTION_DOT = .417E-5
MEAN_MOTION_DDOT = 0

CCSDS_OMM_VERS = 2.0
CREATION_DATE  = 
ORIGINATOR     = 

OBJECT_NAME    = COSMOS 1975
OBJECT_ID      = 1988-093A
CENTER_NAME    = EARTH
REF_FRAME      = TEME
TIME_SYSTEM    = UTC
MEAN_ELEMENT_THEORY = SGP/SGP4

EPOCH          = 2026-01-23T15:49:57.292032
MEAN_MOTION    = 15.27187152
ECCENTRICITY   = .00109349
INCLINATION    = 82.5216
RA_OF_ASC_NODE = 162.8420
ARG_OF_PERICENTER = 334.3611
MEAN_ANOMALY   = 25.7084

EPHEMERIS_TYPE = 0
CLASSIFICATION_TYPE = U
NORAD_CAT_ID   = 19573
ELEMENT_SET_NO = 999
REV_AT_EPOCH   = 1253
BSTAR          = .49106694E-3
MEAN_MOTION_DOT = .13144E-3
MEAN_MOTION_DDOT = 0

CCSDS_OMM_VERS = 2.0
CREATION_DATE  = 
ORIGINATOR     = 

OBJECT_NAME    = SL-14 R/B
OBJECT_ID      = 1988-093B
CENTER_NAME    = EARTH
REF_FRAME      = TEME
TIME_SYSTEM    = UTC
MEAN_ELEMENT_THEORY = SGP/SGP4

EPOCH          = 2026-01-23T14:53:00.599712
MEAN_MOTION    = 14.85604103
ECCENTRICITY   = .00206195
INCLINATION    = 82.5297
RA_OF_ASC_NODE = 84.3637
ARG_OF_PERICENTER = 183.0799
MEAN_ANOMALY   = 329.8550

EPHEMERIS_TYPE = 0
CLASSIFICATION_TYPE = U
NORAD_CAT_ID   = 19574
ELEMENT_SET_NO = 999
REV_AT_EPOCH   = 99434
BSTAR          = .93659024E-4
MEAN_MOTION_DOT = .837E-5
MEAN_MOTION_DDOT = 0

CCSDS_OMM_VERS = 2.0
CREATION_DATE  = 
ORIGINATOR     = 

OBJECT_NAME    = SL-16 R/B
OBJECT_ID      = 1988-102B
CENTER_NAME    = EARTH
REF_FRAME      = TEME
TIME_SYSTEM    = UTC
MEAN_ELEMENT_THEORY = SGP/SGP4

EPOCH          = 2026-01-23T08:17:13.878528
MEAN_MOTION    = 14.16148118
ECCENTRICITY   = .00119277
INCLINATION    = 70.9979
RA_OF_ASC_NODE = 246.9033
ARG_OF_PERICENTER = 77.7851
MEAN_ANOMALY   = 282.4607

EPHEMERIS_TYPE = 0
CLASSIFICATION_TYPE = U
NORAD_CAT_ID   = 19650
ELEMENT_SET_NO = 999
REV_AT_EPOCH   = 92047
BSTAR          = .33911658E-4
MEAN_MOTION_DOT = .19E-6
MEAN_MOTION_DDOT = 0

CCSDS_OMM_VERS = 2.0
CREATION_DATE  = 
ORIGINATOR     = 

OBJECT_NAME    = INTERCOSMOS 24
OBJECT_ID      = 1989-080A
CENTER_NAME    = EARTH
REF_FRAME      = TEME
TIME_SYSTEM    = UTC
MEAN_ELEMENT_THEORY = SGP/SGP4

EPOCH          = 2026-01-23T08:52:28.035552
MEAN_MOTION    = 12.59497522
ECCENTRICITY   = .1188829
INCLINATION    = 82.6079
RA_OF_ASC_NODE = 133.8920
ARG_OF_PERICENTER = 38.0059
MEAN_ANOMALY   = 329.9148

EPHEMERIS_TYPE = 0
CLASSIFICATION_TYPE = U
NORAD_CAT_ID   = 20261
ELEMENT_SET_NO = 999
REV_AT_EPOCH   = 66109
BSTAR          = .2279161E-3
MEAN_MOTION_DOT = .797E-5
MEAN_MOTION_DDOT = 0

CCSDS_OMM_VERS = 2.0
CREATION_DATE  = 
ORIGINATOR     = 

OBJECT_NAME    = SL-14 R/B
OBJECT_ID      = 1989-080C
CENTER_NAME    = EARTH
REF_FRAME      = TEME
TIME_SYSTEM    = UTC
MEAN_ELEMENT_THEORY = SGP/SGP4

EPOCH          = 2026-01-23T12:10:16.973760
MEAN_MOTION    = 12.50444300
ECCENTRICITY   = .1229559
INCLINATION    = 82.5920
RA_OF_ASC_NODE = 202.1972
ARG_OF_PERICENTER = 288.1003
MEAN_ANOMALY   = 59.0137

EPHEMERIS_TYPE = 0
CLASSIFICATION_TYPE = U
NORAD_CAT_ID   = 20262
ELEMENT_SET_NO = 999
REV_AT_EPOCH   = 65450
BSTAR          = .12022207E-3
MEAN_MOTION_DOT = .396E-5
MEAN_MOTION_DDOT = 0

CCSDS_OMM_VERS = 2.0
CREATION_DATE  = 
ORIGINATOR     = 

OBJECT_NAME    = DELTA 1 R/B
OBJECT_ID      = 1989-089B
CENTER_NAME    = EARTH
REF_FRAME      = TEME
TIME_SYSTEM    = UTC
MEAN_ELEMENT_THEORY = SGP/SGP4

EPOCH          = 2026-01-23T13:53:26.233440
MEAN_MOTION    = 14.50617966
ECCENTRICITY   = .00675463
INCLINATION    = 97.0733
RA_OF_ASC_NODE = 238.1824
ARG_OF_PERICENTER = 265.2425
MEAN_ANOMALY   = 94.1057

EPHEMERIS_TYPE = 0
CLASSIFICATION_TYPE = U
NORAD_CAT_ID   = 20323
ELEMENT_SET_NO = 999
REV_AT_EPOCH   = 88919
BSTAR          = .19981474E-3
MEAN_MOTION_DOT = .771E-5
MEAN_MOTION_DDOT = 0

CCSDS_OMM_VERS = 2.0
CREATION_DATE  = 
ORIGINATOR     = 

OBJECT_NAME    = ARIANE 40 R/B
OBJECT_ID      = 1990-005H
CENTER_NAME    = EARTH
REF_FRAME      = TEME
TIME_SYSTEM    = UTC
MEAN_ELEMENT_THEORY = SGP/SGP4

EPOCH          = 2026-01-23T13:47:05.606016
MEAN_MOTION    = 14.39836074
ECCENTRICITY   = .00096492
INCLINATION    = 98.3178
RA_OF_ASC_NODE = 85.5581
ARG_OF_PERICENTER = 347.3140
MEAN_ANOMALY   = 12.7804

EPHEMERIS_TYPE = 0
CLASSIFICATION_TYPE = U
NORAD_CAT_ID   = 20443
ELEMENT_SET_NO = 999
REV_AT_EPOCH   = 88631
BSTAR          = .21486756E-3
MEAN_MOTION_DOT = .632E-5
MEAN_MOTION_DDOT = 0

